$$SOE
2460154.500000000, A.D. 2023-Jul-29 00:00:00.0000, 5.447665693597531E+07, 6.291887913915268E+08, 6.132029976499304E+07,
2460161.500000000, A.D. 2023-Aug-05 00:00:00.0000, 4.654837646321619E+07, 6.314322955599276E+08, 6.308095230815548E+07,
2460168.500000000, A.D. 2023-Aug-12 00:00:00.0000, 3.861134439180505E+07, 6.335567349186209E+08, 6.482970579536009E+07,
2460175.500000000, A.D. 2023-Aug-19 00:00:00.0000, 3.066711413432347E+07, 6.355626898276713E+08, 6.656633107327595E+07,
2460182.500000000, A.D. 2023-Aug-26 00:00:00.0000, 2.271721525335386E+07, 6.374507503691518E+08, 6.829060470839894E+07,
2460189.500000000, A.D. 2023-Sep-02 00:00:00.0000, 1.476315382525823E+07, 6.392215158212966E+08, 7.000230885296139E+07,
2460196.500000000, A.D. 2023-Sep-09 00:00:00.0000, 6.806412817985298E+06, 6.408755940424228E+08, 7.170123110192412E+07,
2460203.500000000, A.D. 2023-Sep-16 00:00:00.0000, -1.151547349243374E+06, 6.424136007059534E+08, 7.338716432094410E+07,
2460210.500000000, A.D. 2023-Sep-23 00:00:00.0000, -9.109287648528382E+06, 6.438361586728046E+08, 7.505990643067461E+07,
2460217.500000000, A.D. 2023-Sep-30 00:00:00.0000, -1.706538902814025E+07, 6.451438986915593E+08, 7.671926027601528E+07,
2460224.500000000, A.D. 2023-Oct-07 00:00:00.0000, -2.501845309338674E+07, 6.463374608830295E+08, 7.836503375196543E+07,
2460231.500000000, A.D. 2023-Oct-14 00:00:00.0000, -3.296710384392369E+07, 6.474174936947472E+08, 7.999703982002127E+07,
2460238.500000000, A.D. 2023-Oct-21 00:00:00.0000, -4.090998723966288E+07, 6.483846519275868E+08, 8.161509625020543E+07,
2460245.500000000, A.D. 2023-Oct-28 00:00:00.0000, -4.884577001973286E+07, 6.492395960946032E+08, 8.321902540436429E+07,
2460252.500000000, A.D. 2023-Nov-04 00:00:00.0000, -5.677313902439061E+07, 6.499829923408881E+08, 8.480865411259994E+07,
2460259.500000000, A.D. 2023-Nov-11 00:00:00.0000, -6.469080084248611E+07, 6.506155123234850E+08, 8.638381357766894E+07,
2460266.500000000, A.D. 2023-Nov-18 00:00:00.0000, -7.259748156534988E+07, 6.511378329861065E+08, 8.794433928212565E+07,
2460273.500000000, A.D. 2023-Nov-25 00:00:00.0000, -8.049192657473829E+07, 6.515506362504952E+08, 8.949007089354977E+07,
2460280.500000000, A.D. 2023-Dec-02 00:00:00.0000, -8.837290033710638E+07, 6.518546086127518E+08, 9.102085216454607E+07,
2460287.500000000, A.D. 2023-Dec-09 00:00:00.0000, -9.623918612672386E+07, 6.520504405854328E+08, 9.253653081571737E+07,
2460294.500000000, A.D. 2023-Dec-16 00:00:00.0000, -1.040895853902873E+08, 6.521388259977641E+08, 9.403695837634906E+07,
2460301.500000000, A.D. 2023-Dec-23 00:00:00.0000, -1.119229164046773E+08, 6.521204618412428E+08, 9.552199000701785E+07,
2460308.500000000, A.D. 2023-Dec-30 00:00:00.0000, -1.197380135679820E+08, 6.519960497097641E+08, 9.699148451269609E+07,
2460315.500000000, A.D. 2024-Jan-06 00:00:00.0000, -1.275337290958577E+08, 6.517662964728776E+08, 9.844530451570386E+07,
2460322.500000000, A.D. 2024-Jan-13 00:00:00.0000, -1.353089339505946E+08, 6.514319123740205E+08, 9.988331634942606E+07,
2460329.500000000, A.D. 2024-Jan-20 00:00:00.0000, -1.430625167798960E+08, 6.509936096379589E+08, 1.013053898123991E+08,
2460336.500000000, A.D. 2024-Jan-27 00:00:00.0000, -1.507933828941751E+08, 6.504521022395890E+08, 1.027113980219103E+08,
2460343.500000000, A.D. 2024-Feb-03 00:00:00.0000, -1.585004537106959E+08, 6.498081058850114E+08, 1.041012173285845E+08,
2460350.500000000, A.D. 2024-Feb-10 00:00:00.0000, -1.661826663872763E+08, 6.490623379132686E+08, 1.054747272424651E+08,
2460357.500000000, A.D. 2024-Feb-17 00:00:00.0000, -1.738389735069514E+08, 6.482155171262915E+08, 1.068318103583222E+08,
2460364.500000000, A.D. 2024-Feb-24 00:00:00.0000, -1.814683427777099E+08, 6.472683635615337E+08, 1.081723522779368E+08,
2460371.500000000, A.D. 2024-Mar-02 00:00:00.0000, -1.890697567179582E+08, 6.462215981744533E+08, 1.094962415238881E+08,
2460378.500000000, A.D. 2024-Mar-09 00:00:00.0000, -1.966422121889036E+08, 6.450759423676455E+08, 1.108033694268579E+08,
2460385.500000000, A.D. 2024-Mar-16 00:00:00.0000, -2.041847193785855E+08, 6.438321175635493E+08, 1.120936299662317E+08,
2460392.500000000, A.D. 2024-Mar-23 00:00:00.0000, -2.116963003412289E+08, 6.424908459295989E+08, 1.133669196640952E+08,
2460399.500000000, A.D. 2024-Mar-30 00:00:00.0000, -2.191759893329593E+08, 6.410528522290032E+08, 1.146231377359798E+08,
2460406.500000000, A.D. 2024-Apr-06 00:00:00.0000, -2.266228346874648E+08, 6.395188634289632E+08, 1.158621861995308E+08,
2460413.500000000, A.D. 2024-Apr-13 00:00:00.0000, -2.340358986806128E+08, 6.378896069019573E+08, 1.170839696836175E+08,
2460420.500000000, A.D. 2024-Apr-20 00:00:00.0000, -2.414142563365205E+08, 6.361658098967562E+08, 1.182883952440332E+08,
2460427.500000000, A.D. 2024-Apr-27 00:00:00.0000, -2.487569946920097E+08, 6.343481997178378E+08, 1.194753722791036E+08,
2460434.500000000, A.D. 2024-May-04 00:00:00.0000, -2.560632124313860E+08, 6.324375039096032E+08, 1.206448124796653E+08,
2460441.500000000, A.D. 2024-May-11 00:00:00.0000, -2.633320196531694E+08, 6.304344503434591E+08, 1.217966297832869E+08,
2460448.500000000, A.D. 2024-May-18 00:00:00.0000, -2.705625376867986E+08, 6.283397672294154E+08, 1.229307403270946E+08,
2460455.500000000, A.D. 2024-May-25 00:00:00.0000, -2.777538989345930E+08, 6.261541830452096E+08, 1.240470623965190E+08,
2460462.500000000, A.D. 2024-Jun-01 00:00:00.0000, -2.849052466790935E+08, 6.238784263256929E+08, 1.251455163599814E+08,
2460469.500000000, A.D. 2024-Jun-08 00:00:00.0000, -2.920157346093692E+08, 6.215132252896659E+08, 1.262260245652744E+08,
2460476.500000000, A.D. 2024-Jun-15 00:00:00.0000, -2.990845256667276E+08, 6.190593078493696E+08, 1.272885112057858E+08,
2460483.500000000, A.D. 2024-Jun-22 00:00:00.0000, -3.061107912150096E+08, 6.165174031780074E+08, 1.283329023450722E+08,
2460490.500000000, A.D. 2024-Jun-29 00:00:00.0000, -3.130937126567401E+08, 6.138882430146565E+08, 1.293591261457906E+08,
2460497.500000000, A.D. 2024-Jul-06 00:00:00.0000, -3.200324828496209E+08, 6.111725602348763E+08, 1.303671128584280E+08,
2460504.500000000, A.D. 2024-Jul-13 00:00:00.0000, -3.269263053742443E+08, 6.083710875104529E+08, 1.313567946218532E+08,
2460511.500000000, A.D. 2024-Jul-20 00:00:00.0000, -3.337743936390185E+08, 6.054845572069719E+08, 1.323281053518150E+08,
2460518.500000000, A.D. 2024-Jul-27 00:00:00.0000, -3.405759704783719E+08, 6.025137015597979E+08, 1.332809806991797E+08,
2460525.500000000, A.D. 2024-Aug-03 00:00:00.0000, -3.473302679713485E+08, 5.994592527535126E+08, 1.342153580221776E+08,
2460532.500000000, A.D. 2024-Aug-10 00:00:00.0000, -3.540365273148833E+08, 5.963219429005470E+08, 1.351311763569904E+08,
2460539.500000000, A.D. 2024-Aug-17 00:00:00.0000, -3.606939987044072E+08, 5.931025039410654E+08, 1.360283763839501E+08,
2460546.500000000, A.D. 2024-Aug-24 00:00:00.0000, -3.673019411938434E+08, 5.898016674422147E+08, 1.369069003847440E+08,
2460553.500000000, A.D. 2024-Aug-31 00:00:00.0000, -3.738596224192261E+08, 5.864201642355459E+08, 1.377666921747104E+08,
2460560.500000000, A.D. 2024-Sep-07 00:00:00.0000, -3.803663178203172E+08, 5.829587240191649E+08, 1.386076969867183E+08,
2460567.500000000, A.D. 2024-Sep-14 00:00:00.0000, -3.868213092749611E+08, 5.794180759206350E+08, 1.394298613799160E+08,
2460574.500000000, A.D. 2024-Sep-21 00:00:00.0000, -3.932238851750546E+08, 5.757989504335132E+08, 1.402331333929619E+08,
2460581.500000000, A.D. 2024-Sep-28 00:00:00.0000, -3.995733424313304E+08, 5.721020795000576E+08, 1.410174627224565E+08,
2460588.500000000, A.D. 2024-Oct-05 00:00:00.0000, -4.058689867369018E+08, 5.683281947413634E+08, 1.417828005898168E+08,
2460595.500000000, A.D. 2024-Oct-12 00:00:00.0000, -4.121101314504086E+08, 5.644780268148443E+08, 1.425290995730874E+08,
2460602.500000000, A.D. 2024-Oct-19 00:00:00.0000, -4.182960968498444E+08, 5.605523056285434E+08, 1.432563135421655E+08,
2460609.500000000, A.D. 2024-Oct-26 00:00:00.0000, -4.244262097892843E+08, 5.565517606110997E+08, 1.439643976348908E+08,
2460616.500000000, A.D. 2024-Nov-02 00:00:00.0000, -4.304998035009529E+08, 5.524771208890963E+08, 1.446533082382379E+08,
2460623.500000000, A.D. 2024-Nov-09 00:00:00.0000, -4.365162174458358E+08, 5.483291153926374E+08, 1.453230029674401E+08,
2460630.500000000, A.D. 2024-Nov-16 00:00:00.0000, -4.424747971867421E+08, 5.441084728896143E+08, 1.459734406407189E+08,
2460637.500000000, A.D. 2024-Nov-23 00:00:00.0000, -4.483748942366982E+08, 5.398159218989570E+08, 1.466045812412863E+08,
2460644.500000000, A.D. 2024-Nov-30 00:00:00.0000, -4.542158656742093E+08, 5.354521904403946E+08, 1.472163858440930E+08,
2460651.500000000, A.D. 2024-Dec-07 00:00:00.0000, -4.599970731058310E+08, 5.310180060414579E+08, 1.478088165033125E+08,
2460658.500000000, A.D. 2024-Dec-14 00:00:00.0000, -4.657178816647176E+08, 5.265140972258611E+08, 1.483818362638987E+08,
2460665.500000000, A.D. 2024-Dec-21 00:00:00.0000, -4.713776613637339E+08, 5.219411952428588E+08, 1.489354094087082E+08,
2460672.500000000, A.D. 2024-Dec-28 00:00:00.0000, -4.769757888302891E+08, 5.173000330703838E+08, 1.494695015179041E+08,
2460679.500000000, A.D. 2025-Jan-04 00:00:00.0000, -4.825116468253759E+08, 5.125913440678031E+08, 1.499840792967006E+08,
2460686.500000000, A.D. 2025-Jan-11 00:00:00.0000, -4.879846233682497E+08, 5.078158619380905E+08, 1.504791104744053E+08,
2460693.500000000, A.D. 2025-Jan-18 00:00:00.0000, -4.933941113836637E+08, 5.029743210808781E+08, 1.509545637841103E+08,
2460700.500000000, A.D. 2025-Jan-25 00:00:00.0000, -4.987395086279086E+08, 4.980674568619468E+08, 1.514104089621665E+08,
2460707.500000000, A.D. 2025-Feb-01 00:00:00.0000, -5.040202177038659E+08, 4.930960057690006E+08, 1.518466167478302E+08,
2460714.500000000, A.D. 2025-Feb-08 00:00:00.0000, -5.092356461064019E+08, 4.880607054733357E+08, 1.522631588795183E+08,
2460721.500000000, A.D. 2025-Feb-15 00:00:00.0000, -5.143852062690266E+08, 4.829622947772988E+08, 1.526600080835420E+08,
$$EOE